[{"OBJECT_NAME":"OBJECT F","OBJECT_ID":"2022-167F","EPOCH":"2026-03-09T22:34:52.000032","MEAN_MOTION":15.68472614,"ECCENTRICITY":0.00018013,"INCLINATION":97.6217,"RA_OF_ASC_NODE":246.6908,"ARG_OF_PERICENTER":28.5626,"MEAN_ANOMALY":331.5733,"EPHEMERIS_TYPE":0,"CLASSIFICATION_TYPE":"U","NORAD_CAT_ID":54687,"ELEMENT_SET_NO":999,"REV_AT_EPOCH":18117,"BSTAR":0.00078904481,"MEAN_MOTION_DOT":0.00089617,"MEAN_MOTION_DDOT":0},{"OBJECT_NAME":"STARLINK-11293 [DTC]","OBJECT_ID":"2024-175G","EPOCH":"2026-03-09T04:45:59.375232","MEAN_MOTION":15.69703902,"ECCENTRICITY":0.00013703,"INCLINATION":53.1595,"RA_OF_ASC_NODE":58.3709,"ARG_OF_PERICENTER":82.8012,"MEAN_ANOMALY":277.3162,"EPHEMERIS_TYPE":0,"CLASSIFICATION_TYPE":"U","NORAD_CAT_ID":61249,"ELEMENT_SET_NO":999,"REV_AT_EPOCH":8329,"BSTAR":-4.74638e-6,"MEAN_MOTION_DOT":-1.164e-5,"MEAN_MOTION_DDOT":0}]
